{
  "type": "FeatureCollection",
  "features": [
    {
      "type": "Feature",
      "geometry": {
        "coordinates": [
          [
            [
              [
                144.95227698915494,
                -37.81009044402087
              ],
              [
                144.95225251972334,
                -37.81004173534382
              ],
              [
                144.9522688005541,
                -37.810036587091744
              ],
              [
                144.9522352990492,
                -37.809969897003015
              ],
              [
                144.9519401963812,
                -37.81006320898076
              ],
              [
                144.9521062974297,
                -37.81039385244335
              ],
              [
                144.9521589768126,
                -37.81037718849673
              ],
              [
                144.95215436114765,
                -37.810368000050794
              ],
              [
                144.95225169584924,
                -37.81033722435725
              ],
              [
                144.95214429505558,
                -37.81012342998219
              ],
              [
                144.95215640372564,
                -37.81011960060052
              ],
              [
                144.95216029375567,
                -37.81012734265773
              ],
              [
                144.95227698915494,
                -37.81009044402087
              ]
            ]
          ]
        ],
        "type": "MultiPolygon"
      },
      "properties": {
        "candidate_id": 1,
        "snapshot_year": 2020,
        "source": "City of Melbourne Building Footprints",
        "evidence_role": "dated_reference_footprint"
      }
    },
    {
      "type": "Feature",
      "geometry": {
        "coordinates": [
          [
            [
              [
                144.95126615820448,
                -37.809859743229396
              ],
              [
                144.9512397366779,
                -37.80981005775575
              ],
              [
                144.95108452532412,
                -37.809868877632084
              ],
              [
                144.95108279659038,
                -37.8098695324444
              ],
              [
                144.9512662587609,
                -37.810216161384034
              ],
              [
                144.95127784400202,
                -37.81023805062303
              ],
              [
                144.95134786707035,
                -37.81021440730484
              ],
              [
                144.9514372570296,
                -37.810184224915176
              ],
              [
                144.95143889988253,
                -37.81018458152404
              ],
              [
                144.95135194474557,
                -37.8100210627223
              ],
              [
                144.95126615820448,
                -37.809859743229396
              ]
            ]
          ]
        ],
        "type": "MultiPolygon"
      },
      "properties": {
        "candidate_id": 2,
        "snapshot_year": 2020,
        "source": "City of Melbourne Building Footprints",
        "evidence_role": "dated_reference_footprint"
      }
    },
    {
      "type": "Feature",
      "geometry": {
        "coordinates": [
          [
            [
              [
                144.95244748933823,
                -37.80991142837295
              ],
              [
                144.95241140452677,
                -37.80992282527578
              ],
              [
                144.95241031282129,
                -37.809920650681725
              ],
              [
                144.95235090700837,
                -37.80993941646973
              ],
              [
                144.9523519965163,
                -37.80994158832258
              ],
              [
                144.95231596437478,
                -37.809952968989315
              ],
              [
                144.9523311714473,
                -37.80998327320032
              ],
              [
                144.9523253492354,
                -37.809985112183114
              ],
              [
                144.9523429464386,
                -37.81002017740918
              ],
              [
                144.95231414814629,
                -37.810029275027986
              ],
              [
                144.95233373280843,
                -37.81006829943345
              ],
              [
                144.95236316364222,
                -37.81005900193467
              ],
              [
                144.95244599956942,
                -37.81022406058812
              ],
              [
                144.95248471251452,
                -37.8102118163117
              ],
              [
                144.95249076563042,
                -37.81022386393517
              ],
              [
                144.9525010286469,
                -37.8102442881867
              ],
              [
                144.95250828553426,
                -37.81025873043543
              ],
              [
                144.9525264892371,
                -37.81025297304586
              ],
              [
                144.95255223291275,
                -37.8102448315787
              ],
              [
                144.95257043660908,
                -37.81023907418213
              ],
              [
                144.95256317971118,
                -37.8102246319369
              ],
              [
                144.95255291784,
                -37.81020420680931
              ],
              [
                144.95254686355509,
                -37.81019216006976
              ],
              [
                144.95258801261468,
                -37.81017914615922
              ],
              [
                144.95250493960248,
                -37.810013613966994
              ],
              [
                144.95253369087072,
                -37.81000453170461
              ],
              [
                144.95251470252055,
                -37.80996669733776
              ],
              [
                144.95248631222978,
                -37.80997566511509
              ],
              [
                144.95246837905734,
                -37.80993993080283
              ],
              [
                144.95246269320089,
                -37.80994172710479
              ],
              [
                144.95244748933823,
                -37.80991142837295
              ]
            ]
          ]
        ],
        "type": "MultiPolygon"
      },
      "properties": {
        "candidate_id": 3,
        "snapshot_year": 2020,
        "source": "City of Melbourne Building Footprints",
        "evidence_role": "dated_reference_footprint"
      }
    },
    {
      "type": "Feature",
      "geometry": {
        "coordinates": [
          [
            [
              [
                144.951447692254,
                -37.8090642560922
              ],
              [
                144.95130553320772,
                -37.80912543824133
              ],
              [
                144.95133001226705,
                -37.80916127309495
              ],
              [
                144.95127556251697,
                -37.80918468541761
              ],
              [
                144.95126814779127,
                -37.80917382882656
              ],
              [
                144.9511988426538,
                -37.80920362791225
              ],
              [
                144.95120570286244,
                -37.80921367011029
              ],
              [
                144.951139654293,
                -37.80924206862205
              ],
              [
                144.95111573316723,
                -37.80920704998946
              ],
              [
                144.95104494045793,
                -37.80923748816659
              ],
              [
                144.95103568731025,
                -37.80922394200731
              ],
              [
                144.9509623494753,
                -37.80925547493224
              ],
              [
                144.95102371217223,
                -37.80934530661697
              ],
              [
                144.95110224626217,
                -37.80946027523417
              ],
              [
                144.95112326788822,
                -37.80949105025186
              ],
              [
                144.95126823728197,
                -37.8094286591925
              ],
              [
                144.95123974296317,
                -37.80938694459178
              ],
              [
                144.95130492145756,
                -37.809358919293985
              ],
              [
                144.95131737117987,
                -37.8093771440742
              ],
              [
                144.95138806163226,
                -37.80934674901367
              ],
              [
                144.95137577019528,
                -37.809328755892935
              ],
              [
                144.951427548496,
                -37.809306492908306
              ],
              [
                144.95145577877557,
                -37.809347818069725
              ],
              [
                144.95159925161326,
                -37.809286127807006
              ],
              [
                144.951447692254,
                -37.8090642560922
              ]
            ]
          ]
        ],
        "type": "MultiPolygon"
      },
      "properties": {
        "candidate_id": 4,
        "snapshot_year": 2020,
        "source": "City of Melbourne Building Footprints",
        "evidence_role": "dated_reference_footprint"
      }
    },
    {
      "type": "Feature",
      "geometry": {
        "coordinates": [
          [
            [
              [
                144.951447692254,
                -37.8090642560922
              ],
              [
                144.95130553320772,
                -37.80912543824133
              ],
              [
                144.95133001226705,
                -37.80916127309495
              ],
              [
                144.95127556251697,
                -37.80918468541761
              ],
              [
                144.95126814779127,
                -37.80917382882656
              ],
              [
                144.9511988426538,
                -37.80920362791225
              ],
              [
                144.95120570286244,
                -37.80921367011029
              ],
              [
                144.95124573307245,
                -37.8092722706827
              ],
              [
                144.95130492145756,
                -37.809358919293985
              ],
              [
                144.95131737117987,
                -37.8093771440742
              ],
              [
                144.95138806163226,
                -37.80934674901367
              ],
              [
                144.95137577019528,
                -37.809328755892935
              ],
              [
                144.951427548496,
                -37.809306492908306
              ],
              [
                144.95145577877557,
                -37.809347818069725
              ],
              [
                144.95159925161326,
                -37.809286127807006
              ],
              [
                144.951447692254,
                -37.8090642560922
              ]
            ]
          ]
        ],
        "type": "MultiPolygon"
      },
      "properties": {
        "candidate_id": 5,
        "snapshot_year": 2020,
        "source": "City of Melbourne Building Footprints",
        "evidence_role": "dated_reference_footprint"
      }
    },
    {
      "type": "Feature",
      "geometry": {
        "coordinates": [
          [
            [
              [
                144.952227167466,
                -37.80985818833846
              ],
              [
                144.95225771192506,
                -37.80984788469453
              ],
              [
                144.95229602546127,
                -37.809834961255305
              ],
              [
                144.9523938008755,
                -37.809801978910144
              ],
              [
                144.95237695205083,
                -37.809770538613705
              ],
              [
                144.95241795539084,
                -37.80975670666223
              ],
              [
                144.95240994795063,
                -37.80974176382064
              ],
              [
                144.9524297513522,
                -37.809735083521836
              ],
              [
                144.95242156263203,
                -37.80971979508225
              ],
              [
                144.952420647714,
                -37.8097180876675
              ],
              [
                144.9523859390491,
                -37.809729795067184
              ],
              [
                144.95233051887303,
                -37.80974848957084
              ],
              [
                144.95230914315317,
                -37.80975567240124
              ],
              [
                144.95230776894172,
                -37.809756158568874
              ],
              [
                144.95227848020747,
                -37.809766031673874
              ],
              [
                144.9522422800243,
                -37.80977823487314
              ],
              [
                144.95213318640998,
                -37.80981500975477
              ],
              [
                144.9521289701836,
                -37.80981644319314
              ],
              [
                144.95212042850503,
                -37.80981935773445
              ],
              [
                144.95215308908257,
                -37.809880299956156
              ],
              [
                144.95215439391666,
                -37.809882735995075
              ],
              [
                144.952227167466,
                -37.80985818833846
              ]
            ]
          ]
        ],
        "type": "MultiPolygon"
      },
      "properties": {
        "candidate_id": 6,
        "snapshot_year": 2020,
        "source": "City of Melbourne Building Footprints",
        "evidence_role": "dated_reference_footprint"
      }
    },
    {
      "type": "Feature",
      "geometry": {
        "coordinates": [
          [
            [
              [
                144.95195305793285,
                -37.80979564587625
              ],
              [
                144.9519481126233,
                -37.80978597496718
              ],
              [
                144.9519772990978,
                -37.80977622813333
              ],
              [
                144.95195320894138,
                -37.80973082248946
              ],
              [
                144.9519257307011,
                -37.809739998846645
              ],
              [
                144.95192023958285,
                -37.80972965067252
              ],
              [
                144.95182538756933,
                -37.80976132630329
              ],
              [
                144.95181756773997,
                -37.80975904098313
              ],
              [
                144.95181197815307,
                -37.80975813450249
              ],
              [
                144.95180592577626,
                -37.809758149984184
              ],
              [
                144.9517997512389,
                -37.80975917445886
              ],
              [
                144.95177686223064,
                -37.809766818405
              ],
              [
                144.95178168922902,
                -37.80977591952294
              ],
              [
                144.9517514686312,
                -37.80978601149324
              ],
              [
                144.9517570676618,
                -37.809796564316365
              ],
              [
                144.9517342485651,
                -37.80980418513835
              ],
              [
                144.95176178917575,
                -37.80985609334314
              ],
              [
                144.95176947274712,
                -37.80985352707524
              ],
              [
                144.9517956907948,
                -37.809902943949105
              ],
              [
                144.95197696984403,
                -37.809842405589116
              ],
              [
                144.95195305793285,
                -37.80979564587625
              ]
            ]
          ]
        ],
        "type": "MultiPolygon"
      },
      "properties": {
        "candidate_id": 7,
        "snapshot_year": 2020,
        "source": "City of Melbourne Building Footprints",
        "evidence_role": "dated_reference_footprint"
      }
    },
    {
      "type": "Feature",
      "geometry": {
        "coordinates": [
          [
            [
              [
                144.95159684139847,
                -37.810171948828476
              ],
              [
                144.95160245205565,
                -37.81017008006792
              ],
              [
                144.95161757705705,
                -37.81017276643936
              ],
              [
                144.95163202785562,
                -37.810167954120786
              ],
              [
                144.95162511473433,
                -37.810154889387924
              ],
              [
                144.95166254925175,
                -37.81014242218198
              ],
              [
                144.95161008138012,
                -37.8100432606935
              ],
              [
                144.95154747685356,
                -37.81006444325103
              ],
              [
                144.95154603443694,
                -37.81006493092663
              ],
              [
                144.95158336559652,
                -37.810135482672024
              ],
              [
                144.95143889988253,
                -37.81018458152404
              ],
              [
                144.95156620293864,
                -37.81042537408669
              ],
              [
                144.951636266208,
                -37.8105578976666
              ],
              [
                144.95177959454517,
                -37.81051758868188
              ],
              [
                144.95175838475387,
                -37.81047749055751
              ],
              [
                144.95174322425464,
                -37.81048253926993
              ],
              [
                144.95172964514404,
                -37.81045687641845
              ],
              [
                144.95174481252553,
                -37.810451825123906
              ],
              [
                144.95172651766302,
                -37.810417227101915
              ],
              [
                144.9517128452347,
                -37.81042178081645
              ],
              [
                144.95169967493814,
                -37.81042616753494
              ],
              [
                144.95168563276357,
                -37.81039962879212
              ],
              [
                144.9516988030561,
                -37.81039524207506
              ],
              [
                144.95171248463765,
                -37.810390685817794
              ],
              [
                144.9516942763498,
                -37.81035624429886
              ],
              [
                144.9516805821356,
                -37.81036080574139
              ],
              [
                144.95166798852526,
                -37.81036499972378
              ],
              [
                144.95165383523306,
                -37.81033824907054
              ],
              [
                144.95166642770417,
                -37.810334055069774
              ],
              [
                144.95168013220686,
                -37.810329491104284
              ],
              [
                144.95166215602228,
                -37.81029548888531
              ],
              [
                144.95164843891175,
                -37.81030005713534
              ],
              [
                144.95163595993947,
                -37.81030421345696
              ],
              [
                144.95160755934018,
                -37.81025054018363
              ],
              [
                144.95162003830475,
                -37.81024638386478
              ],
              [
                144.95163377604206,
                -37.81024180876734
              ],
              [
                144.95161469883675,
                -37.81020572459916
              ],
              [
                144.95159799412417,
                -37.81021128803672
              ],
              [
                144.9515801241041,
                -37.81017751564942
              ],
              [
                144.95159684139847,
                -37.810171948828476
              ]
            ]
          ]
        ],
        "type": "MultiPolygon"
      },
      "properties": {
        "candidate_id": 8,
        "snapshot_year": 2020,
        "source": "City of Melbourne Building Footprints",
        "evidence_role": "dated_reference_footprint"
      }
    },
    {
      "type": "Feature",
      "geometry": {
        "coordinates": [
          [
            [
              [
                144.95292077791873,
                -37.810777345116485
              ],
              [
                144.95291791618095,
                -37.81077119170834
              ],
              [
                144.95290693996142,
                -37.810747589266356
              ],
              [
                144.9529338086235,
                -37.81073972411043
              ],
              [
                144.95282572078446,
                -37.81051090482333
              ],
              [
                144.95250616558587,
                -37.810601828511736
              ],
              [
                144.95261113899647,
                -37.810832829742246
              ],
              [
                144.95263981131743,
                -37.810824437286925
              ],
              [
                144.952651049059,
                -37.81084860302822
              ],
              [
                144.95265419813055,
                -37.810855374237335
              ],
              [
                144.95284272904522,
                -37.810800190176565
              ],
              [
                144.95292077791873,
                -37.810777345116485
              ]
            ]
          ]
        ],
        "type": "MultiPolygon"
      },
      "properties": {
        "candidate_id": 9,
        "snapshot_year": 2020,
        "source": "City of Melbourne Building Footprints",
        "evidence_role": "dated_reference_footprint"
      }
    },
    {
      "type": "Feature",
      "geometry": {
        "coordinates": [
          [
            [
              [
                144.95171273803666,
                -37.81020120381553
              ],
              [
                144.9518834195113,
                -37.81014286577496
              ],
              [
                144.95186317145632,
                -37.81010557713653
              ],
              [
                144.9516924900544,
                -37.81016391515012
              ],
              [
                144.95171273803666,
                -37.81020120381553
              ]
            ]
          ]
        ],
        "type": "MultiPolygon"
      },
      "properties": {
        "candidate_id": 10,
        "snapshot_year": 2020,
        "source": "City of Melbourne Building Footprints",
        "evidence_role": "dated_reference_footprint"
      }
    },
    {
      "type": "Feature",
      "geometry": {
        "coordinates": [
          [
            [
              [
                144.95170113238322,
                -37.80998173349503
              ],
              [
                144.95155013101794,
                -37.80969276023261
              ],
              [
                144.9514012755616,
                -37.80974894342077
              ],
              [
                144.95154015003396,
                -37.8100139473309
              ],
              [
                144.95154358551682,
                -37.81001281664415
              ],
              [
                144.95156979118195,
                -37.81002494904716
              ],
              [
                144.95170113238322,
                -37.80998173349503
              ]
            ]
          ]
        ],
        "type": "MultiPolygon"
      },
      "properties": {
        "candidate_id": 11,
        "snapshot_year": 2020,
        "source": "City of Melbourne Building Footprints",
        "evidence_role": "dated_reference_footprint"
      }
    },
    {
      "type": "Feature",
      "geometry": {
        "coordinates": [
          [
            [
              [
                144.9523859390491,
                -37.809729795067184
              ],
              [
                144.95237837611018,
                -37.809716565877146
              ],
              [
                144.95239750459564,
                -37.809709687304185
              ],
              [
                144.95236586155798,
                -37.80965433931219
              ],
              [
                144.95234879348706,
                -37.80966048050172
              ],
              [
                144.95234125219793,
                -37.80964729043631
              ],
              [
                144.95235787169923,
                -37.809641309967176
              ],
              [
                144.9523253337143,
                -37.80958439728207
              ],
              [
                144.9523090698584,
                -37.80959025055749
              ],
              [
                144.95230128480526,
                -37.809576633599484
              ],
              [
                144.95231742358905,
                -37.80957082591241
              ],
              [
                144.95228502653774,
                -37.8095141589843
              ],
              [
                144.95226784258116,
                -37.80952034320599
              ],
              [
                144.95225961762802,
                -37.80950595710251
              ],
              [
                144.9522772466925,
                -37.80949961390508
              ],
              [
                144.95224593538626,
                -37.809444845698444
              ],
              [
                144.9522288512865,
                -37.80945099290067
              ],
              [
                144.95222182801274,
                -37.80943870670295
              ],
              [
                144.9521190887702,
                -37.80947766749079
              ],
              [
                144.9521241045119,
                -37.80948631047628
              ],
              [
                144.95211389448892,
                -37.80949003950257
              ],
              [
                144.95211707233503,
                -37.809495518941795
              ],
              [
                144.95209661898707,
                -37.80950298993065
              ],
              [
                144.95209358092947,
                -37.809497754436926
              ],
              [
                144.952087910215,
                -37.80949982584286
              ],
              [
                144.95208299535835,
                -37.80949135493249
              ],
              [
                144.9519739632174,
                -37.80953270059897
              ],
              [
                144.95197767818914,
                -37.80953925367143
              ],
              [
                144.9519679328321,
                -37.809542732129415
              ],
              [
                144.95200054474654,
                -37.809600247279825
              ],
              [
                144.9520095834304,
                -37.80959702147392
              ],
              [
                144.95213168632318,
                -37.80981236395085
              ],
              [
                144.95213318640998,
                -37.80981500975477
              ],
              [
                144.9522422800243,
                -37.80977823487314
              ],
              [
                144.95224171377,
                -37.8097772283263
              ],
              [
                144.95223303428642,
                -37.809761779040926
              ],
              [
                144.95226894960769,
                -37.80974907344207
              ],
              [
                144.95227848020747,
                -37.809766031673874
              ],
              [
                144.95230776894172,
                -37.809756158568874
              ],
              [
                144.95230914315317,
                -37.80975567240124
              ],
              [
                144.95233051887303,
                -37.80974848957084
              ],
              [
                144.9523859390491,
                -37.809729795067184
              ]
            ],
            [
              [
                144.95220670748927,
                -37.80963369500981
              ],
              [
                144.95216809205084,
                -37.80964735303555
              ],
              [
                144.9521530899285,
                -37.80962065346276
              ],
              [
                144.95219170424488,
                -37.809606994521076
              ],
              [
                144.95220670748927,
                -37.80963369500981
              ]
            ],
            [
              [
                144.95224479237606,
                -37.80970428038944
              ],
              [
                144.95220736416957,
                -37.809716859640645
              ],
              [
                144.9521934755277,
                -37.8096908463066
              ],
              [
                144.9522309025628,
                -37.80967826794044
              ],
              [
                144.95224479237606,
                -37.80970428038944
              ]
            ],
            [
              [
                144.95216734264983,
                -37.80956347576464
              ],
              [
                144.95212866099826,
                -37.80957702358423
              ],
              [
                144.95211773463467,
                -37.809557387106025
              ],
              [
                144.95212578868546,
                -37.809554565916706
              ],
              [
                144.95212231609568,
                -37.809548325265965
              ],
              [
                144.95214191670578,
                -37.809541460352136
              ],
              [
                144.95214538172297,
                -37.809547687353
              ],
              [
                144.95215640300214,
                -37.809543826442415
              ],
              [
                144.95216734264983,
                -37.80956347576464
              ]
            ]
          ]
        ],
        "type": "MultiPolygon"
      },
      "properties": {
        "candidate_id": 12,
        "snapshot_year": 2020,
        "source": "City of Melbourne Building Footprints",
        "evidence_role": "dated_reference_footprint"
      }
    },
    {
      "type": "Feature",
      "geometry": {
        "coordinates": [
          [
            [
              [
                144.9508936327766,
                -37.810402505491325
              ],
              [
                144.95082321069432,
                -37.81042573786458
              ],
              [
                144.9509058066669,
                -37.8105833821231
              ],
              [
                144.95095711208486,
                -37.810681592769555
              ],
              [
                144.95098382747656,
                -37.81073273160285
              ],
              [
                144.95119179420138,
                -37.81066510253885
              ],
              [
                144.95119335417004,
                -37.810664595284955
              ],
              [
                144.951140627675,
                -37.81056366459788
              ],
              [
                144.9510584253316,
                -37.81040630941532
              ],
              [
                144.95100187002635,
                -37.81042490512717
              ],
              [
                144.95107964286893,
                -37.81057389877417
              ],
              [
                144.95099723073375,
                -37.81060097519921
              ],
              [
                144.9508936327766,
                -37.810402505491325
              ]
            ]
          ]
        ],
        "type": "MultiPolygon"
      },
      "properties": {
        "candidate_id": 13,
        "snapshot_year": 2020,
        "source": "City of Melbourne Building Footprints",
        "evidence_role": "dated_reference_footprint"
      }
    },
    {
      "type": "Feature",
      "geometry": {
        "coordinates": [
          [
            [
              [
                144.9525264892371,
                -37.81025297304586
              ],
              [
                144.95255223291275,
                -37.8102448315787
              ],
              [
                144.95257043660908,
                -37.81023907418213
              ],
              [
                144.95256317971118,
                -37.8102246319369
              ],
              [
                144.95255291784,
                -37.81020420680931
              ],
              [
                144.95254686355509,
                -37.81019216006976
              ],
              [
                144.9525456609487,
                -37.81018976456311
              ],
              [
                144.95252745726293,
                -37.8101955219562
              ],
              [
                144.95250171244194,
                -37.81020366429942
              ],
              [
                144.95248350874962,
                -37.8102094216855
              ],
              [
                144.95248471251452,
                -37.8102118163117
              ],
              [
                144.95249076563042,
                -37.81022386393517
              ],
              [
                144.9525010286469,
                -37.8102442881867
              ],
              [
                144.95250828553426,
                -37.81025873043543
              ],
              [
                144.9525264892371,
                -37.81025297304586
              ]
            ]
          ]
        ],
        "type": "MultiPolygon"
      },
      "properties": {
        "candidate_id": 14,
        "snapshot_year": 2020,
        "source": "City of Melbourne Building Footprints",
        "evidence_role": "dated_reference_footprint"
      }
    },
    {
      "type": "Feature",
      "geometry": {
        "coordinates": [
          [
            [
              [
                144.95137577019528,
                -37.809328755892935
              ],
              [
                144.95136502024758,
                -37.80931301909602
              ],
              [
                144.95137660980603,
                -37.80930803626966
              ],
              [
                144.95135902259378,
                -37.8092822892242
              ],
              [
                144.9513469548186,
                -37.80928747820848
              ],
              [
                144.95131592995858,
                -37.809242059027
              ],
              [
                144.95124573307245,
                -37.8092722706827
              ],
              [
                144.95130492145756,
                -37.809358919293985
              ],
              [
                144.95131737117987,
                -37.8093771440742
              ],
              [
                144.95138806163226,
                -37.80934674901367
              ],
              [
                144.95137577019528,
                -37.809328755892935
              ]
            ]
          ]
        ],
        "type": "MultiPolygon"
      },
      "properties": {
        "candidate_id": 15,
        "snapshot_year": 2020,
        "source": "City of Melbourne Building Footprints",
        "evidence_role": "dated_reference_footprint"
      }
    },
    {
      "type": "Feature",
      "geometry": {
        "coordinates": [
          [
            [
              [
                144.95227805133143,
                -37.809885859749464
              ],
              [
                144.95225771192506,
                -37.80984788469453
              ],
              [
                144.952227167466,
                -37.80985818833846
              ],
              [
                144.95224750246703,
                -37.8098961579148
              ],
              [
                144.95227805133143,
                -37.809885859749464
              ]
            ]
          ]
        ],
        "type": "MultiPolygon"
      },
      "properties": {
        "candidate_id": 16,
        "snapshot_year": 2020,
        "source": "City of Melbourne Building Footprints",
        "evidence_role": "dated_reference_footprint"
      }
    },
    {
      "type": "Feature",
      "geometry": {
        "coordinates": [
          [
            [
              [
                144.95163202785562,
                -37.810167954120786
              ],
              [
                144.95162511473433,
                -37.810154889387924
              ],
              [
                144.95166254925175,
                -37.81014242218198
              ],
              [
                144.95161008138012,
                -37.8100432606935
              ],
              [
                144.95154747685356,
                -37.81006444325103
              ],
              [
                144.95154603443694,
                -37.81006493092663
              ],
              [
                144.95158336559652,
                -37.810135482672024
              ],
              [
                144.95143889988253,
                -37.81018458152404
              ],
              [
                144.95156620293864,
                -37.81042537408669
              ],
              [
                144.951636266208,
                -37.8105578976666
              ],
              [
                144.95177959454517,
                -37.81051758868188
              ],
              [
                144.95175838475387,
                -37.81047749055751
              ],
              [
                144.95174481252553,
                -37.810451825123906
              ],
              [
                144.95172651766302,
                -37.810417227101915
              ],
              [
                144.9517128452347,
                -37.81042178081645
              ],
              [
                144.9516988030561,
                -37.81039524207506
              ],
              [
                144.95171248463765,
                -37.810390685817794
              ],
              [
                144.9516942763498,
                -37.81035624429886
              ],
              [
                144.9516805821356,
                -37.81036080574139
              ],
              [
                144.95166642770417,
                -37.810334055069774
              ],
              [
                144.95168013220686,
                -37.810329491104284
              ],
              [
                144.95166215602228,
                -37.81029548888531
              ],
              [
                144.95164843891175,
                -37.81030005713534
              ],
              [
                144.95162003830475,
                -37.81024638386478
              ],
              [
                144.95163377604206,
                -37.81024180876734
              ],
              [
                144.95161469883675,
                -37.81020572459916
              ],
              [
                144.95159684139847,
                -37.810171948828476
              ],
              [
                144.95160245205565,
                -37.81017008006792
              ],
              [
                144.95161757705705,
                -37.81017276643936
              ],
              [
                144.95163202785562,
                -37.810167954120786
              ]
            ]
          ]
        ],
        "type": "MultiPolygon"
      },
      "properties": {
        "candidate_id": 17,
        "snapshot_year": 2020,
        "source": "City of Melbourne Building Footprints",
        "evidence_role": "dated_reference_footprint"
      }
    },
    {
      "type": "Feature",
      "geometry": {
        "coordinates": [
          [
            [
              [
                144.95203707725582,
                -37.81073370626634
              ],
              [
                144.95221137327454,
                -37.81112568907221
              ],
              [
                144.95263619148778,
                -37.81100375048817
              ],
              [
                144.9525962502832,
                -37.810907686487354
              ],
              [
                144.95258248939297,
                -37.81091128802467
              ],
              [
                144.95248115698033,
                -37.810692851179645
              ],
              [
                144.95249518250588,
                -37.81068875590558
              ],
              [
                144.95246103135705,
                -37.81061513806887
              ],
              [
                144.95203707725582,
                -37.81073370626634
              ]
            ]
          ]
        ],
        "type": "MultiPolygon"
      },
      "properties": {
        "candidate_id": 18,
        "snapshot_year": 2020,
        "source": "City of Melbourne Building Footprints",
        "evidence_role": "dated_reference_footprint"
      }
    },
    {
      "type": "Feature",
      "geometry": {
        "coordinates": [
          [
            [
              [
                144.9513963795905,
                -37.809810394061
              ],
              [
                144.95137034142408,
                -37.80976056208535
              ],
              [
                144.95124130701535,
                -37.809809462366225
              ],
              [
                144.9512397366779,
                -37.80981005775575
              ],
              [
                144.95126615820448,
                -37.809859743229396
              ],
              [
                144.95126735890761,
                -37.80985928829984
              ],
              [
                144.9513963795905,
                -37.809810394061
              ]
            ]
          ]
        ],
        "type": "MultiPolygon"
      },
      "properties": {
        "candidate_id": 19,
        "snapshot_year": 2020,
        "source": "City of Melbourne Building Footprints",
        "evidence_role": "dated_reference_footprint"
      }
    },
    {
      "type": "Feature",
      "geometry": {
        "coordinates": [
          [
            [
              [
                144.95241140452677,
                -37.80992282527578
              ],
              [
                144.95241031282129,
                -37.809920650681725
              ],
              [
                144.95235090700837,
                -37.80993941646973
              ],
              [
                144.9523519965163,
                -37.80994158832258
              ],
              [
                144.9523672024912,
                -37.80997189160885
              ],
              [
                144.9523311714473,
                -37.80998327320032
              ],
              [
                144.9523253492354,
                -37.809985112183114
              ],
              [
                144.9523429464386,
                -37.81002017740918
              ],
              [
                144.95231414814629,
                -37.810029275027986
              ],
              [
                144.95233373280843,
                -37.81006829943345
              ],
              [
                144.95236316364222,
                -37.81005900193467
              ],
              [
                144.95244599956942,
                -37.81022406058812
              ],
              [
                144.95248471251452,
                -37.8102118163117
              ],
              [
                144.95249076563042,
                -37.81022386393517
              ],
              [
                144.9525010286469,
                -37.8102442881867
              ],
              [
                144.95250828553426,
                -37.81025873043543
              ],
              [
                144.9525264892371,
                -37.81025297304586
              ],
              [
                144.95255223291275,
                -37.8102448315787
              ],
              [
                144.95257043660908,
                -37.81023907418213
              ],
              [
                144.95256317971118,
                -37.8102246319369
              ],
              [
                144.95255291784,
                -37.81020420680931
              ],
              [
                144.95254686355509,
                -37.81019216006976
              ],
              [
                144.95258801261468,
                -37.81017914615922
              ],
              [
                144.95250493960248,
                -37.810013613966994
              ],
              [
                144.95253369087072,
                -37.81000453170461
              ],
              [
                144.95251470252055,
                -37.80996669733776
              ],
              [
                144.95248631222978,
                -37.80997566511509
              ],
              [
                144.95246837905734,
                -37.80993993080283
              ],
              [
                144.95246269320089,
                -37.80994172710479
              ],
              [
                144.95242661062238,
                -37.809953124952095
              ],
              [
                144.95241140452677,
                -37.80992282527578
              ]
            ]
          ]
        ],
        "type": "MultiPolygon"
      },
      "properties": {
        "candidate_id": 20,
        "snapshot_year": 2020,
        "source": "City of Melbourne Building Footprints",
        "evidence_role": "dated_reference_footprint"
      }
    },
    {
      "type": "Feature",
      "geometry": {
        "coordinates": [
          [
            [
              [
                144.95156620293864,
                -37.81042537408669
              ],
              [
                144.95143889988253,
                -37.81018458152404
              ],
              [
                144.9514372570296,
                -37.810184224915176
              ],
              [
                144.95134786707035,
                -37.81021440730484
              ],
              [
                144.95127784400202,
                -37.81023805062303
              ],
              [
                144.95122666733764,
                -37.81025532968844
              ],
              [
                144.9513517186546,
                -37.81049254077808
              ],
              [
                144.95153476178538,
                -37.8104312443885
              ],
              [
                144.95153674884696,
                -37.810435052174995
              ],
              [
                144.9515637659029,
                -37.81042617519085
              ],
              [
                144.95156620293864,
                -37.81042537408669
              ]
            ]
          ]
        ],
        "type": "MultiPolygon"
      },
      "properties": {
        "candidate_id": 21,
        "snapshot_year": 2020,
        "source": "City of Melbourne Building Footprints",
        "evidence_role": "dated_reference_footprint"
      }
    },
    {
      "type": "Feature",
      "geometry": {
        "coordinates": [
          [
            [
              [
                144.952227167466,
                -37.80985818833846
              ],
              [
                144.95225771192506,
                -37.80984788469453
              ],
              [
                144.95229602546127,
                -37.809834961255305
              ],
              [
                144.9523938008755,
                -37.809801978910144
              ],
              [
                144.95243625549486,
                -37.80978766753107
              ],
              [
                144.95244068578785,
                -37.80978617382051
              ],
              [
                144.95242388599567,
                -37.80975480827949
              ],
              [
                144.95243780288092,
                -37.80975011634509
              ],
              [
                144.9524297513522,
                -37.809735083521836
              ],
              [
                144.95242156263203,
                -37.80971979508225
              ],
              [
                144.952420647714,
                -37.8097180876675
              ],
              [
                144.9523859390491,
                -37.809729795067184
              ],
              [
                144.95233051887303,
                -37.80974848957084
              ],
              [
                144.95230914315317,
                -37.80975567240124
              ],
              [
                144.95230776894172,
                -37.809756158568874
              ],
              [
                144.95227848020747,
                -37.809766031673874
              ],
              [
                144.9522422800243,
                -37.80977823487314
              ],
              [
                144.95213318640998,
                -37.80981500975477
              ],
              [
                144.9521289701836,
                -37.80981644319314
              ],
              [
                144.95212042850503,
                -37.80981935773445
              ],
              [
                144.95215308908257,
                -37.809880299956156
              ],
              [
                144.95215439391666,
                -37.809882735995075
              ],
              [
                144.952227167466,
                -37.80985818833846
              ]
            ]
          ]
        ],
        "type": "MultiPolygon"
      },
      "properties": {
        "candidate_id": 22,
        "snapshot_year": 2020,
        "source": "City of Melbourne Building Footprints",
        "evidence_role": "dated_reference_footprint"
      }
    },
    {
      "type": "Feature",
      "geometry": {
        "coordinates": [
          [
            [
              [
                144.95227055278792,
                -37.809420231050595
              ],
              [
                144.95222182801274,
                -37.80943870670295
              ],
              [
                144.9521190887702,
                -37.80947766749079
              ],
              [
                144.9521241045119,
                -37.80948631047628
              ],
              [
                144.95211389448892,
                -37.80949003950257
              ],
              [
                144.95211707233503,
                -37.809495518941795
              ],
              [
                144.95209661898707,
                -37.80950298993065
              ],
              [
                144.95209358092947,
                -37.809497754436926
              ],
              [
                144.952087910215,
                -37.80949982584286
              ],
              [
                144.95208299535835,
                -37.80949135493249
              ],
              [
                144.9519739632174,
                -37.80953270059897
              ],
              [
                144.95197767818914,
                -37.80953925367143
              ],
              [
                144.9519679328321,
                -37.809542732129415
              ],
              [
                144.95200054474654,
                -37.809600247279825
              ],
              [
                144.9520095834304,
                -37.80959702147392
              ],
              [
                144.95213168632318,
                -37.80981236395085
              ],
              [
                144.95213318640998,
                -37.80981500975477
              ],
              [
                144.9522422800243,
                -37.80977823487314
              ],
              [
                144.95224171377,
                -37.8097772283263
              ],
              [
                144.95223303428642,
                -37.809761779040926
              ],
              [
                144.95226894960769,
                -37.80974907344207
              ],
              [
                144.95227848020747,
                -37.809766031673874
              ],
              [
                144.95230776894172,
                -37.809756158568874
              ],
              [
                144.95230914315317,
                -37.80975567240124
              ],
              [
                144.95233051887303,
                -37.80974848957084
              ],
              [
                144.9523859390491,
                -37.809729795067184
              ],
              [
                144.952420647714,
                -37.8097180876675
              ],
              [
                144.95241784794484,
                -37.80971285993022
              ],
              [
                144.9524322486598,
                -37.80970833411525
              ],
              [
                144.95238516709094,
                -37.809615806445485
              ],
              [
                144.95227055278792,
                -37.809420231050595
              ]
            ],
            [
              [
                144.9521530899285,
                -37.80962065346276
              ],
              [
                144.95219170424488,
                -37.809606994521076
              ],
              [
                144.95220670748927,
                -37.80963369500981
              ],
              [
                144.95216809205084,
                -37.80964735303555
              ],
              [
                144.9521530899285,
                -37.80962065346276
              ]
            ],
            [
              [
                144.9521934755277,
                -37.8096908463066
              ],
              [
                144.9522309025628,
                -37.80967826794044
              ],
              [
                144.95224479237606,
                -37.80970428038944
              ],
              [
                144.95220736416957,
                -37.809716859640645
              ],
              [
                144.9521934755277,
                -37.8096908463066
              ]
            ],
            [
              [
                144.95211773463467,
                -37.809557387106025
              ],
              [
                144.95212578868546,
                -37.809554565916706
              ],
              [
                144.95212231609568,
                -37.809548325265965
              ],
              [
                144.95214191670578,
                -37.809541460352136
              ],
              [
                144.95214538172297,
                -37.809547687353
              ],
              [
                144.95215640300214,
                -37.809543826442415
              ],
              [
                144.95216734264983,
                -37.80956347576464
              ],
              [
                144.95212866099826,
                -37.80957702358423
              ],
              [
                144.95211773463467,
                -37.809557387106025
              ]
            ]
          ]
        ],
        "type": "MultiPolygon"
      },
      "properties": {
        "candidate_id": 23,
        "snapshot_year": 2020,
        "source": "City of Melbourne Building Footprints",
        "evidence_role": "dated_reference_footprint"
      }
    },
    {
      "type": "Feature",
      "geometry": {
        "coordinates": [
          [
            [
              [
                144.95201251064915,
                -37.80899366818349
              ],
              [
                144.95171602138151,
                -37.809117395424074
              ],
              [
                144.95171470746524,
                -37.809115494520235
              ],
              [
                144.9516803832148,
                -37.809129533432795
              ],
              [
                144.95166628250863,
                -37.80910655961641
              ],
              [
                144.9516654749101,
                -37.80910524427149
              ],
              [
                144.95157788276,
                -37.80914140588452
              ],
              [
                144.95159555570095,
                -37.80916614867844
              ],
              [
                144.95161765208078,
                -37.80919708469239
              ],
              [
                144.95166957526683,
                -37.80926977911489
              ],
              [
                144.95169235953938,
                -37.80930167872176
              ],
              [
                144.95171158759328,
                -37.809328598753055
              ],
              [
                144.95194510611321,
                -37.809239698045914
              ],
              [
                144.9521227744166,
                -37.80917205935849
              ],
              [
                144.95201251064915,
                -37.80899366818349
              ]
            ]
          ]
        ],
        "type": "MultiPolygon"
      },
      "properties": {
        "candidate_id": 24,
        "snapshot_year": 2020,
        "source": "City of Melbourne Building Footprints",
        "evidence_role": "dated_reference_footprint"
      }
    },
    {
      "type": "Feature",
      "geometry": {
        "coordinates": [
          [
            [
              [
                144.95227805133143,
                -37.809885859749464
              ],
              [
                144.9523389105473,
                -37.809865343957426
              ],
              [
                144.95235064542632,
                -37.809887253720554
              ],
              [
                144.95246943820388,
                -37.80984961905144
              ],
              [
                144.95243754304255,
                -37.80979007172527
              ],
              [
                144.95243625549486,
                -37.80978766753107
              ],
              [
                144.9523938008755,
                -37.809801978910144
              ],
              [
                144.95229602546127,
                -37.809834961255305
              ],
              [
                144.95225771192506,
                -37.80984788469453
              ],
              [
                144.95227805133143,
                -37.809885859749464
              ]
            ]
          ]
        ],
        "type": "MultiPolygon"
      },
      "properties": {
        "candidate_id": 25,
        "snapshot_year": 2020,
        "source": "City of Melbourne Building Footprints",
        "evidence_role": "dated_reference_footprint"
      }
    },
    {
      "type": "Feature",
      "geometry": {
        "coordinates": [
          [
            [
              [
                144.95184702532796,
                -37.81005081036489
              ],
              [
                144.95175322034814,
                -37.81008141011657
              ],
              [
                144.95164925090737,
                -37.81011548093214
              ],
              [
                144.95166254925175,
                -37.81014242218198
              ],
              [
                144.95169715757015,
                -37.810206859818685
              ],
              [
                144.9518948017902,
                -37.81013897512248
              ],
              [
                144.95184702532796,
                -37.81005081036489
              ]
            ]
          ]
        ],
        "type": "MultiPolygon"
      },
      "properties": {
        "candidate_id": 26,
        "snapshot_year": 2020,
        "source": "City of Melbourne Building Footprints",
        "evidence_role": "dated_reference_footprint"
      }
    },
    {
      "type": "Feature",
      "geometry": {
        "coordinates": [
          [
            [
              [
                144.95176200734358,
                -37.80904314728693
              ],
              [
                144.95171867643742,
                -37.80897836598654
              ],
              [
                144.95169302090895,
                -37.808989167276174
              ],
              [
                144.95173635280898,
                -37.80905395310888
              ],
              [
                144.95176200734358,
                -37.80904314728693
              ]
            ]
          ]
        ],
        "type": "MultiPolygon"
      },
      "properties": {
        "candidate_id": 27,
        "snapshot_year": 2020,
        "source": "City of Melbourne Building Footprints",
        "evidence_role": "dated_reference_footprint"
      }
    },
    {
      "type": "Feature",
      "geometry": {
        "coordinates": [
          [
            [
              [
                144.95255291784,
                -37.81020420680931
              ],
              [
                144.95252745726293,
                -37.8101955219562
              ],
              [
                144.95250171244194,
                -37.81020366429942
              ],
              [
                144.95249076563042,
                -37.81022386393517
              ],
              [
                144.9525010286469,
                -37.8102442881867
              ],
              [
                144.9525264892371,
                -37.81025297304586
              ],
              [
                144.95255223291275,
                -37.8102448315787
              ],
              [
                144.95256317971118,
                -37.8102246319369
              ],
              [
                144.95255291784,
                -37.81020420680931
              ]
            ]
          ]
        ],
        "type": "MultiPolygon"
      },
      "properties": {
        "candidate_id": 28,
        "snapshot_year": 2020,
        "source": "City of Melbourne Building Footprints",
        "evidence_role": "dated_reference_footprint"
      }
    },
    {
      "type": "Feature",
      "geometry": {
        "coordinates": [
          [
            [
              [
                144.951447692254,
                -37.8090642560922
              ],
              [
                144.95130553320772,
                -37.80912543824133
              ],
              [
                144.95133001226705,
                -37.80916127309495
              ],
              [
                144.95127556251697,
                -37.80918468541761
              ],
              [
                144.95126814779127,
                -37.80917382882656
              ],
              [
                144.9511988426538,
                -37.80920362791225
              ],
              [
                144.95120570286244,
                -37.80921367011029
              ],
              [
                144.951139654293,
                -37.80924206862205
              ],
              [
                144.95111573316723,
                -37.80920704998946
              ],
              [
                144.95104494045793,
                -37.80923748816659
              ],
              [
                144.95103568731025,
                -37.80922394200731
              ],
              [
                144.9509623494753,
                -37.80925547493224
              ],
              [
                144.95102371217223,
                -37.80934530661697
              ],
              [
                144.9509642364289,
                -37.80937087976718
              ],
              [
                144.9510427824406,
                -37.809485866653844
              ],
              [
                144.95110224626217,
                -37.80946027523417
              ],
              [
                144.95112326788822,
                -37.80949105025186
              ],
              [
                144.95126823728197,
                -37.8094286591925
              ],
              [
                144.95123974296317,
                -37.80938694459178
              ],
              [
                144.95130492145756,
                -37.809358919293985
              ],
              [
                144.95131737117987,
                -37.8093771440742
              ],
              [
                144.95133981536438,
                -37.80941000118643
              ],
              [
                144.95141050584013,
                -37.80937960611324
              ],
              [
                144.95138806163226,
                -37.80934674901367
              ],
              [
                144.95137577019528,
                -37.809328755892935
              ],
              [
                144.951427548496,
                -37.809306492908306
              ],
              [
                144.95145577877557,
                -37.809347818069725
              ],
              [
                144.95148656029585,
                -37.80939288152359
              ],
              [
                144.95163003433393,
                -37.80933119124533
              ],
              [
                144.95159925161326,
                -37.809286127807006
              ],
              [
                144.951447692254,
                -37.8090642560922
              ]
            ]
          ]
        ],
        "type": "MultiPolygon"
      },
      "properties": {
        "candidate_id": 29,
        "snapshot_year": 2020,
        "source": "City of Melbourne Building Footprints",
        "evidence_role": "dated_reference_footprint"
      }
    },
    {
      "type": "Feature",
      "geometry": {
        "coordinates": [
          [
            [
              [
                144.9521227744166,
                -37.80917205935849
              ],
              [
                144.95201251064915,
                -37.80899366818349
              ],
              [
                144.95171602138151,
                -37.809117395424074
              ],
              [
                144.95171470746524,
                -37.809115494520235
              ],
              [
                144.9516803832148,
                -37.809129533432795
              ],
              [
                144.95166628250863,
                -37.80910655961641
              ],
              [
                144.9516654749101,
                -37.80910524427149
              ],
              [
                144.95157788276,
                -37.80914140588452
              ],
              [
                144.95159555570095,
                -37.80916614867844
              ],
              [
                144.95162703766695,
                -37.80915401409515
              ],
              [
                144.951627197244,
                -37.80915395288765
              ],
              [
                144.9516595993587,
                -37.809180696568184
              ],
              [
                144.95161765208078,
                -37.80919708469239
              ],
              [
                144.95166957526683,
                -37.80926977911489
              ],
              [
                144.9517021249902,
                -37.809257233225495
              ],
              [
                144.9517222789997,
                -37.809290145953916
              ],
              [
                144.95169235953938,
                -37.80930167872176
              ],
              [
                144.95171158759328,
                -37.809328598753055
              ],
              [
                144.95194510611321,
                -37.809239698045914
              ],
              [
                144.9521227744166,
                -37.80917205935849
              ]
            ]
          ]
        ],
        "type": "MultiPolygon"
      },
      "properties": {
        "candidate_id": 30,
        "snapshot_year": 2020,
        "source": "City of Melbourne Building Footprints",
        "evidence_role": "dated_reference_footprint"
      }
    },
    {
      "type": "Feature",
      "geometry": {
        "coordinates": [
          [
            [
              [
                144.95153674884696,
                -37.810435052174995
              ],
              [
                144.95153476178538,
                -37.8104312443885
              ],
              [
                144.9513517186546,
                -37.81049254077808
              ],
              [
                144.95137119461657,
                -37.81052948353437
              ],
              [
                144.9514184646788,
                -37.810619150935786
              ],
              [
                144.95162110350023,
                -37.81056216230251
              ],
              [
                144.9515861966082,
                -37.81049529078581
              ],
              [
                144.95157082933784,
                -37.81050034038467
              ],
              [
                144.95153674884696,
                -37.810435052174995
              ]
            ]
          ]
        ],
        "type": "MultiPolygon"
      },
      "properties": {
        "candidate_id": 31,
        "snapshot_year": 2020,
        "source": "City of Melbourne Building Footprints",
        "evidence_role": "dated_reference_footprint"
      }
    },
    {
      "type": "Feature",
      "geometry": {
        "coordinates": [
          [
            [
              [
                144.95127784400202,
                -37.81023805062303
              ],
              [
                144.9512662587609,
                -37.810216161384034
              ],
              [
                144.95108279659038,
                -37.8098695324444
              ],
              [
                144.95087693363823,
                -37.80994754794957
              ],
              [
                144.9509277381176,
                -37.81004278503051
              ],
              [
                144.95102366386675,
                -37.81022260387443
              ],
              [
                144.95103991774195,
                -37.81025307245125
              ],
              [
                144.95104980440178,
                -37.810271605919645
              ],
              [
                144.95107023783575,
                -37.81030554464774
              ],
              [
                144.95107153996742,
                -37.81030770759526
              ],
              [
                144.95122666733764,
                -37.81025532968844
              ],
              [
                144.95127784400202,
                -37.81023805062303
              ]
            ]
          ]
        ],
        "type": "MultiPolygon"
      },
      "properties": {
        "candidate_id": 32,
        "snapshot_year": 2020,
        "source": "City of Melbourne Building Footprints",
        "evidence_role": "dated_reference_footprint"
      }
    },
    {
      "type": "Feature",
      "geometry": {
        "coordinates": [
          [
            [
              [
                144.95099723073375,
                -37.81060097519921
              ],
              [
                144.9508936327766,
                -37.810402505491325
              ],
              [
                144.95082321069432,
                -37.81042573786458
              ],
              [
                144.9509058066669,
                -37.8105833821231
              ],
              [
                144.95095711208486,
                -37.810681592769555
              ],
              [
                144.95098382747656,
                -37.81073273160285
              ],
              [
                144.95119179420138,
                -37.81066510253885
              ],
              [
                144.95119335417004,
                -37.810664595284955
              ],
              [
                144.951140627675,
                -37.81056366459788
              ],
              [
                144.95113943897042,
                -37.81056405485014
              ],
              [
                144.9510015985908,
                -37.81060934381359
              ],
              [
                144.95099723073375,
                -37.81060097519921
              ]
            ]
          ]
        ],
        "type": "MultiPolygon"
      },
      "properties": {
        "candidate_id": 33,
        "snapshot_year": 2020,
        "source": "City of Melbourne Building Footprints",
        "evidence_role": "dated_reference_footprint"
      }
    },
    {
      "type": "Feature",
      "geometry": {
        "coordinates": [
          [
            [
              [
                144.95236084524316,
                -37.80980507812286
              ],
              [
                144.95233051887303,
                -37.80974848957084
              ],
              [
                144.95230914315317,
                -37.80975567240124
              ],
              [
                144.95230776894172,
                -37.809756158568874
              ],
              [
                144.95227848020747,
                -37.809766031673874
              ],
              [
                144.9522422800243,
                -37.80977823487314
              ],
              [
                144.95213318640998,
                -37.80981500975477
              ],
              [
                144.9521289701836,
                -37.80981644319314
              ],
              [
                144.95215931041065,
                -37.80987305997251
              ],
              [
                144.95236084524316,
                -37.80980507812286
              ]
            ]
          ]
        ],
        "type": "MultiPolygon"
      },
      "properties": {
        "candidate_id": 34,
        "snapshot_year": 2020,
        "source": "City of Melbourne Building Footprints",
        "evidence_role": "dated_reference_footprint"
      }
    },
    {
      "type": "Feature",
      "geometry": {
        "coordinates": [
          [
            [
              [
                144.951447692254,
                -37.8090642560922
              ],
              [
                144.95130553320772,
                -37.80912543824133
              ],
              [
                144.95133001226705,
                -37.80916127309495
              ],
              [
                144.95127556251697,
                -37.80918468541761
              ],
              [
                144.95126814779127,
                -37.80917382882656
              ],
              [
                144.9511988426538,
                -37.80920362791225
              ],
              [
                144.95120570286244,
                -37.80921367011029
              ],
              [
                144.951139654293,
                -37.80924206862205
              ],
              [
                144.95111573316723,
                -37.80920704998946
              ],
              [
                144.95104494045793,
                -37.80923748816659
              ],
              [
                144.95103568731025,
                -37.80922394200731
              ],
              [
                144.9509623494753,
                -37.80925547493224
              ],
              [
                144.95102371217223,
                -37.80934530661697
              ],
              [
                144.9509642364289,
                -37.80937087976718
              ],
              [
                144.9510427824406,
                -37.809485866653844
              ],
              [
                144.95110224626217,
                -37.80946027523417
              ],
              [
                144.95112326788822,
                -37.80949105025186
              ],
              [
                144.95115348710812,
                -37.80953524698909
              ],
              [
                144.9512984565912,
                -37.80947285499399
              ],
              [
                144.95126823728197,
                -37.8094286591925
              ],
              [
                144.95123974296317,
                -37.80938694459178
              ],
              [
                144.95130492145756,
                -37.809358919293985
              ],
              [
                144.95131737117987,
                -37.8093771440742
              ],
              [
                144.95133981536438,
                -37.80941000118643
              ],
              [
                144.95141050584013,
                -37.80937960611324
              ],
              [
                144.95138806163226,
                -37.80934674901367
              ],
              [
                144.95137577019528,
                -37.809328755892935
              ],
              [
                144.951427548496,
                -37.809306492908306
              ],
              [
                144.95145577877557,
                -37.809347818069725
              ],
              [
                144.95148656029585,
                -37.80939288152359
              ],
              [
                144.95163003433393,
                -37.80933119124533
              ],
              [
                144.95159925161326,
                -37.809286127807006
              ],
              [
                144.951447692254,
                -37.8090642560922
              ]
            ]
          ]
        ],
        "type": "MultiPolygon"
      },
      "properties": {
        "candidate_id": 35,
        "snapshot_year": 2020,
        "source": "City of Melbourne Building Footprints",
        "evidence_role": "dated_reference_footprint"
      }
    },
    {
      "type": "Feature",
      "geometry": {
        "coordinates": [
          [
            [
              [
                144.95191956210388,
                -37.809553322223834
              ],
              [
                144.95155013101794,
                -37.80969276023261
              ],
              [
                144.95170113238322,
                -37.80998173349503
              ],
              [
                144.95175199144785,
                -37.810079062808164
              ],
              [
                144.9517595119749,
                -37.81007680731401
              ],
              [
                144.95185390024855,
                -37.81004606270081
              ],
              [
                144.95199576506556,
                -37.80999985322191
              ],
              [
                144.95197532635282,
                -37.809959885697694
              ],
              [
                144.95196847035467,
                -37.80994647863005
              ],
              [
                144.95202146705853,
                -37.80992941923689
              ],
              [
                144.95197696984403,
                -37.809842405589116
              ],
              [
                144.95195305793285,
                -37.80979564587625
              ],
              [
                144.95204012373628,
                -37.8097676205595
              ],
              [
                144.9519426755306,
                -37.8095770574567
              ],
              [
                144.95193325250656,
                -37.80958009273296
              ],
              [
                144.95191956210388,
                -37.809553322223834
              ]
            ]
          ]
        ],
        "type": "MultiPolygon"
      },
      "properties": {
        "candidate_id": 36,
        "snapshot_year": 2020,
        "source": "City of Melbourne Building Footprints",
        "evidence_role": "dated_reference_footprint"
      }
    },
    {
      "type": "Feature",
      "geometry": {
        "coordinates": [
          [
            [
              [
                144.95225604248887,
                -37.810724516733444
              ],
              [
                144.952251358069,
                -37.81086051536144
              ],
              [
                144.95234641064846,
                -37.81106337452493
              ],
              [
                144.95253264520358,
                -37.81100844932744
              ],
              [
                144.95255608461676,
                -37.810879043566956
              ],
              [
                144.95242731401834,
                -37.81067745466578
              ],
              [
                144.95225604248887,
                -37.810724516733444
              ]
            ]
          ]
        ],
        "type": "MultiPolygon"
      },
      "properties": {
        "candidate_id": 37,
        "snapshot_year": 2020,
        "source": "City of Melbourne Building Footprints",
        "evidence_role": "dated_reference_footprint"
      }
    },
    {
      "type": "Feature",
      "geometry": {
        "coordinates": [
          [
            [
              [
                144.95154603443694,
                -37.81006493092663
              ],
              [
                144.95153188417876,
                -37.81006971962564
              ],
              [
                144.9513963795905,
                -37.809810394061
              ],
              [
                144.95126735890761,
                -37.80985928829984
              ],
              [
                144.95126615820448,
                -37.809859743229396
              ],
              [
                144.95135194474557,
                -37.8100210627223
              ],
              [
                144.95143889988253,
                -37.81018458152404
              ],
              [
                144.95158336559652,
                -37.810135482672024
              ],
              [
                144.95154603443694,
                -37.81006493092663
              ]
            ]
          ]
        ],
        "type": "MultiPolygon"
      },
      "properties": {
        "candidate_id": 38,
        "snapshot_year": 2020,
        "source": "City of Melbourne Building Footprints",
        "evidence_role": "dated_reference_footprint"
      }
    },
    {
      "type": "Feature",
      "geometry": {
        "coordinates": [
          [
            [
              [
                144.95141434051484,
                -37.80901088774388
              ],
              [
                144.95138821429242,
                -37.8089748944813
              ],
              [
                144.9513872546672,
                -37.80897357288492
              ],
              [
                144.95132839597892,
                -37.80900046636796
              ],
              [
                144.9512891572252,
                -37.809018394745635
              ],
              [
                144.9513151499081,
                -37.8090542045701
              ],
              [
                144.95141434051484,
                -37.80901088774388
              ]
            ]
          ]
        ],
        "type": "MultiPolygon"
      },
      "properties": {
        "candidate_id": 39,
        "snapshot_year": 2020,
        "source": "City of Melbourne Building Footprints",
        "evidence_role": "dated_reference_footprint"
      }
    }
  ],
  "metadata": {
    "crs": "EPSG:4326",
    "requested_detector": "city_melbourne_2020_reference",
    "source": "City of Melbourne Building Footprints",
    "source_dataset": "2020-building-footprints",
    "source_url": "https://data.melbourne.vic.gov.au/api/explore/v2.1/catalog/datasets/2020-building-footprints/records",
    "license": "CC BY 4.0",
    "query_bbox_wgs84": {
      "west": 144.951,
      "south": -37.811,
      "east": 144.953,
      "north": -37.809
    },
    "evidence_role": "dated_reference_footprint",
    "warning": "Snapshot changes require imagery review; footprint updates can reflect mapping changes and map wall footprints rather than roof edges."
  }
}