{
  "type": "FeatureCollection",
  "features": [
    {
      "type": "Feature",
      "geometry": {
        "coordinates": [
          [
            [
              144.9775129015,
              -37.8134500778
            ],
            [
              144.9775184717,
              -37.8134015595
            ],
            [
              144.9774107588,
              -37.8133937769
            ],
            [
              144.9774051885,
              -37.8134422952
            ],
            [
              144.9775129015,
              -37.8134500778
            ]
          ]
        ],
        "type": "Polygon"
      },
      "properties": {
        "candidate_id": 1,
        "snapshot_year": 2023,
        "source": "City of Melbourne Building Footprints",
        "evidence_role": "dated_reference_footprint"
      }
    }
  ],
  "metadata": {
    "crs": "EPSG:4326",
    "requested_detector": "city_melbourne_2023_reference",
    "source": "City of Melbourne Building Footprints",
    "source_dataset": "2023-building-footprints",
    "source_url": "https://data.melbourne.vic.gov.au/api/explore/v2.1/catalog/datasets/2023-building-footprints/records",
    "license": "CC BY 4.0",
    "query_bbox_wgs84": {
      "west": 144.9768,
      "south": -37.8141,
      "east": 144.978,
      "north": -37.8128
    },
    "evidence_role": "dated_reference_footprint",
    "warning": "Snapshot changes require imagery review; footprint updates can reflect mapping changes and map wall footprints rather than roof edges."
  }
}