{
  "type": "FeatureCollection",
  "features": [
    {
      "type": "Feature",
      "geometry": {
        "type": "Polygon",
        "coordinates": [
          [
            [
              144.9775129,
              -37.81345008
            ],
            [
              144.97751847,
              -37.81340156
            ],
            [
              144.97741076,
              -37.81339378
            ],
            [
              144.97740519,
              -37.8134423
            ],
            [
              144.9775129,
              -37.81345008
            ]
          ]
        ]
      },
      "properties": {
        "candidate_id": 1,
        "classification": "building_extension_footprint_candidate",
        "area_m2": 82.7,
        "outside_before_area_m2": 26.9,
        "before_overlap_fraction": 0.675,
        "nearest_before_footprint_distance_m": 0.0,
        "best_before_footprint_iou": 0.629,
        "matched_before_footprint_ids": [
          1
        ],
        "evidence_role": "object_footprint_refinement",
        "footprint_detector": "city_melbourne_2023_reference"
      }
    }
  ],
  "metadata": {
    "crs": "EPSG:4326",
    "evidence_role": "object_footprint_refinement",
    "before_footprint_count": 1,
    "after_footprint_count": 1,
    "match_distance_m": 6.0,
    "match_iou": 0.1,
    "extension_outside_fraction": 0.25,
    "before_detector": "city_melbourne_2020_reference",
    "after_detector": "city_melbourne_2023_reference"
  }
}